{"type": "FeatureCollection", "features": [ {"type": "Feature", "properties": {"norad_id": 31210, "name": "FENGYUN 1C DEB", "group": "fengyun-1c-debris", "lat": 9.019268395197397, "lon": -6.620602085489812, "alt_km": 861.5640440693605, "timestamp": "2025-12-19T22:41:52.674415+00:00", "meta": {"OBJECT_NAME": "FENGYUN 1C DEB", "OBJECT_ID": "1999-025BKQ", "EPOCH": "2025-12-19T11:28:23.765376", "MEAN_MOTION": 14.12004646, "ECCENTRICITY": 0.0017441, "INCLINATION": 98.7184, "RA_OF_ASC_NODE": 354.3204, "ARG_OF_PERICENTER": 136.5143, "MEAN_ANOMALY": 16.8173, "EPHEMERIS_TYPE": 0, "CLASSIFICATION_TYPE": "U", "NORAD_CAT_ID": 31210, "ELEMENT_SET_NO": 999, "REV_AT_EPOCH": 96062, "BSTAR": 0.00028265, "MEAN_MOTION_DOT": 4.75e-06, "MEAN_MOTION_DDOT": 0}, "tle": {"line1": "1 31210U 99025BKQ 25353.47805284  .00000475  00000+0  28265-3 0  9999", "line2": "2 31210  98.7184 354.3204 0017441 136.5143  16.8173 14.12004646960624"}}, "geometry": {"type": "Point", "coordinates": [-6.620602085489812, 9.019268395197397]}}, {"type": "Feature", "properties": {"norad_id": 31211, "name": "FENGYUN 1C DEB", "group": "fengyun-1c-debris", "lat": 6.82033583398249, "lon": 28.666221141972464, "alt_km": 809.7422453526287, "timestamp": "2025-12-19T22:41:52.674425+00:00", "meta": {"OBJECT_NAME": "FENGYUN 1C DEB", "OBJECT_ID": "1999-025BKR", "EPOCH": "2025-12-18T21:18:02.771712", "MEAN_MOTION": 14.2007878, "ECCENTRICITY": 0.00504135, "INCLINATION": 98.6726, "RA_OF_ASC_NODE": 28.6751, "ARG_OF_PERICENTER": 71.8452, "MEAN_ANOMALY": 288.8205, "EPHEMERIS_TYPE": 0, "CLASSIFICATION_TYPE": "U", "NORAD_CAT_ID": 31211, "ELEMENT_SET_NO": 999, "REV_AT_EPOCH": 63380, "BSTAR": 0.00079976901, "MEAN_MOTION_DOT": 1.683e-05, "MEAN_MOTION_DDOT": 0}, "tle": {"line1": "1 31211U 99025BKR 25352.88753208  .00001683  00000+0  79977-3 0  9990", "line2": "2 31211  98.6726  28.6751 0050413  71.8452 288.8205 14.20078780633807"}}, "geometry": {"type": "Point", "coordinates": [28.666221141972464, 6.82033583398249]}}, {"type": "Feature", "properties": {"norad_id": 31212, "name": "FENGYUN 1C DEB", "group": "fengyun-1c-debris", "lat": 12.50543250616079, "lon": -152.31067384979187, "alt_km": 797.2445073883036, "timestamp": "2025-12-19T22:41:52.674436+00:00", "meta": {"OBJECT_NAME": "FENGYUN 1C DEB", "OBJECT_ID": "1999-025BKS", "EPOCH": "2025-12-14T12:45:56.653344", "MEAN_MOTION": 14.13124373, "ECCENTRICITY": 0.00752745, "INCLINATION": 99.2196, "RA_OF_ASC_NODE": 20.0508, "ARG_OF_PERICENTER": 167.0098, "MEAN_ANOMALY": 193.3035, "EPHEMERIS_TYPE": 0, "CLASSIFICATION_TYPE": "U", "NORAD_CAT_ID": 31212, "ELEMENT_SET_NO": 999, "REV_AT_EPOCH": 95684, "BSTAR": 0.0014706798, "MEAN_MOTION_DOT": 2.778e-05, "MEAN_MOTION_DDOT": 0}, "tle": {"line1": "1 31212U 99025BKS 25348.53190571  .00002778  00000+0  14707-2 0  9991", "line2": "2 31212  99.2196  20.0508 0075274 167.0098 193.3035 14.13124373956843"}}, "geometry": {"type": "Point", "coordinates": [-152.31067384979187, 12.50543250616079]}}, {"type": "Feature", "properties": {"norad_id": 31215, "name": "FENGYUN 1C DEB", "group": "fengyun-1c-debris", "lat": -35.319765921381624, "lon": -155.14791468130926, "alt_km": 738.3524593513312, "timestamp": "2025-12-19T22:41:52.674446+00:00", "meta": {"OBJECT_NAME": "FENGYUN 1C DEB", "OBJECT_ID": "1999-025BKV", "EPOCH": "2025-12-15T08:19:35.240160", "MEAN_MOTION": 14.33803054, "ECCENTRICITY": 0.00700435, "INCLINATION": 99.0713, "RA_OF_ASC_NODE": 193.5324, "ARG_OF_PERICENTER": 316.6718, "MEAN_ANOMALY": 42.897, "EPHEMERIS_TYPE": 0, "CLASSIFICATION_TYPE": "U", "NORAD_CAT_ID": 31215, "ELEMENT_SET_NO": 999, "REV_AT_EPOCH": 96563, "BSTAR": 0.00074953738, "MEAN_MOTION_DOT": 2.094e-05, "MEAN_MOTION_DDOT": 0}, "tle": {"line1": "1 31215U 99025BKV 25349.34693565  .00002094  00000+0  74954-3 0  9997", "line2": "2 31215  99.0713 193.5324 0070043 316.6718  42.8970 14.33803054965636"}}, "geometry": {"type": "Point", "coordinates": [-155.14791468130926, -35.319765921381624]}}, {"type": "Feature", "properties": {"norad_id": 31217, "name": "FENGYUN 1C DEB", "group": "fengyun-1c-debris", "lat": 54.412023715189214, "lon": -10.632716564904094, "alt_km": 820.1862836851715, "timestamp": "2025-12-19T22:41:52.674488+00:00", "meta": {"OBJECT_NAME": "FENGYUN 1C DEB", "OBJECT_ID": "1999-025BKX", "EPOCH": "2025-12-17T17:55:15.855456", "MEAN_MOTION": 14.17549567, "ECCENTRICITY": 0.0099896, "INCLINATION": 98.6404, "RA_OF_ASC_NODE": 359.4964, "ARG_OF_PERICENTER": 145.7057, "MEAN_ANOMALY": 215.0622, "EPHEMERIS_TYPE": 0, "CLASSIFICATION_TYPE": "U", "NORAD_CAT_ID": 31217, "ELEMENT_SET_NO": 999, "REV_AT_EPOCH": 96419, "BSTAR": 0.00045754541, "MEAN_MOTION_DOT": 9.34e-06, "MEAN_MOTION_DDOT": 0}, "tle": {"line1": "1 31217U 99025BKX 25351.74671129  .00000934  00000+0  45755-3 0  9996", "line2": "2 31217  98.6404 359.4964 0099896 145.7057 215.0622 14.17549567964193"}}, "geometry": {"type": "Point", "coordinates": [-10.632716564904094, 54.412023715189214]}}, {"type": "Feature", "properties": {"norad_id": 31218, "name": "FENGYUN 1C DEB", "group": "fengyun-1c-debris", "lat": -57.685753084959295, "lon": 119.00454826649812, "alt_km": 655.3729595580244, "timestamp": "2025-12-19T22:41:52.674500+00:00", "meta": {"OBJECT_NAME": "FENGYUN 1C DEB", "OBJECT_ID": "1999-025BKY", "EPOCH": "2025-12-19T06:39:31.870944", "MEAN_MOTION": 14.72783214, "ECCENTRICITY": 0.0011838, "INCLINATION": 98.8431, "RA_OF_ASC_NODE": 104.029, "ARG_OF_PERICENTER": 6.0846, "MEAN_ANOMALY": 354.0501, "EPHEMERIS_TYPE": 0, "CLASSIFICATION_TYPE": "U", "NORAD_CAT_ID": 31218, "ELEMENT_SET_NO": 999, "REV_AT_EPOCH": 97179, "BSTAR": 0.0026727, "MEAN_MOTION_DOT": 0.00017081, "MEAN_MOTION_DDOT": 0}, "tle": {"line1": "1 31218U 99025BKY 25353.27745221  .00017081  00000+0  26727-2 0  9990", "line2": "2 31218  98.8431 104.0290 0011838   6.0846 354.0501 14.72783214971791"}}, "geometry": {"type": "Point", "coordinates": [119.00454826649812, -57.685753084959295]}}, {"type": "Feature", "properties": {"norad_id": 31219, "name": "FENGYUN 1C DEB", "group": "fengyun-1c-debris", "lat": 73.88616732269864, "lon": -30.405636875868375, "alt_km": 829.0709763897294, "timestamp": "2025-12-19T22:41:52.674511+00:00", "meta": {"OBJECT_NAME": "FENGYUN 1C DEB", "OBJECT_ID": "1999-025BKZ", "EPOCH": "2025-12-14T18:20:38.656320", "MEAN_MOTION": 14.13798373, "ECCENTRICITY": 0.00791314, "INCLINATION": 99.2837, "RA_OF_ASC_NODE": 358.7011, "ARG_OF_PERICENTER": 171.5473, "MEAN_ANOMALY": 188.7052, "EPHEMERIS_TYPE": 0, "CLASSIFICATION_TYPE": "U", "NORAD_CAT_ID": 31219, "ELEMENT_SET_NO": 999, "REV_AT_EPOCH": 95598, "BSTAR": 0.001362468, "MEAN_MOTION_DOT": 2.61e-05, "MEAN_MOTION_DDOT": 0}, "tle": {"line1": "1 31219U 99025BKZ 25348.76433630  .00002610  00000+0  13625-2 0  9992", "line2": "2 31219  99.2837 358.7011 0079131 171.5473 188.7052 14.13798373955983"}}, "geometry": {"type": "Point", "coordinates": [-30.405636875868375, 73.88616732269864]}}, {"type": "Feature", "properties": {"norad_id": 31222, "name": "FENGYUN 1C DEB", "group": "fengyun-1c-debris", "lat": -76.31684802494374, "lon": 103.17883684296224, "alt_km": 647.7765526381736, "timestamp": "2025-12-19T22:41:52.674521+00:00", "meta": {"OBJECT_NAME": "FENGYUN 1C DEB", "OBJECT_ID": "1999-025BLC", "EPOCH": "2025-12-19T03:48:46.221120", "MEAN_MOTION": 14.97926386, "ECCENTRICITY": 0.01702067, "INCLINATION": 98.6154, "RA_OF_ASC_NODE": 63.794, "ARG_OF_PERICENTER": 48.6685, "MEAN_ANOMALY": 312.9038, "EPHEMERIS_TYPE": 0, "CLASSIFICATION_TYPE": "U", "NORAD_CAT_ID": 31222, "ELEMENT_SET_NO": 999, "REV_AT_EPOCH": 79, "BSTAR": 0.00047463216, "MEAN_MOTION_DOT": 7.472e-05, "MEAN_MOTION_DDOT": 0}, "tle": {"line1": "1 31222U 99025BLC 25353.15886830  .00007472  00000+0  47463-3 0  9998", "line2": "2 31222  98.6154  63.7940 0170206  48.6685 312.9038 14.97926386   794"}}, "geometry": {"type": "Point", "coordinates": [103.17883684296224, -76.31684802494374]}}, {"type": "Feature", "properties": {"norad_id": 31223, "name": "FENGYUN 1C DEB", "group": "fengyun-1c-debris", "lat": 30.511814967862797, "lon": 65.25253030349293, "alt_km": 1077.2296544373721, "timestamp": "2025-12-19T22:41:52.674532+00:00", "meta": {"OBJECT_NAME": "FENGYUN 1C DEB", "OBJECT_ID": "1999-025BLD", "EPOCH": "2025-12-17T15:56:44.115936", "MEAN_MOTION": 13.77273936, "ECCENTRICITY": 0.0243496, "INCLINATION": 99.0066, "RA_OF_ASC_NODE": 237.7256, "ARG_OF_PERICENTER": 27.8459, "MEAN_ANOMALY": 333.5484, "EPHEMERIS_TYPE": 0, "CLASSIFICATION_TYPE": "U", "NORAD_CAT_ID": 31223, "ELEMENT_SET_NO": 999, "REV_AT_EPOCH": 92796, "BSTAR": 0.0021509612, "MEAN_MOTION_DOT": 2.615e-05, "MEAN_MOTION_DDOT": 0}, "tle": {"line1": "1 31223U 99025BLD 25351.66439949  .00002615  00000+0  21510-2 0  9996", "line2": "2 31223  99.0066 237.7256 0243496  27.8459 333.5484 13.77273936927969"}}, "geometry": {"type": "Point", "coordinates": [65.25253030349293, 30.511814967862797]}}, {"type": "Feature", "properties": {"norad_id": 31224, "name": "FENGYUN 1C DEB", "group": "fengyun-1c-debris", "lat": -73.75630942412383, "lon": 135.20200349997296, "alt_km": 848.0411508917032, "timestamp": "2025-12-19T22:41:52.674542+00:00", "meta": {"OBJECT_NAME": "FENGYUN 1C DEB", "OBJECT_ID": "1999-025BLE", "EPOCH": "2025-12-17T05:43:55.673184", "MEAN_MOTION": 14.28902802, "ECCENTRICITY": 0.01582842, "INCLINATION": 98.3697, "RA_OF_ASC_NODE": 342.954, "ARG_OF_PERICENTER": 149.6216, "MEAN_ANOMALY": 228.2145, "EPHEMERIS_TYPE": 0, "CLASSIFICATION_TYPE": "U", "NORAD_CAT_ID": 31224, "ELEMENT_SET_NO": 999, "REV_AT_EPOCH": 69315, "BSTAR": 0.00023481345, "MEAN_MOTION_DOT": 6.35e-06, "MEAN_MOTION_DDOT": 0}, "tle": {"line1": "1 31224U 99025BLE 25351.23883881  .00000635  00000+0  23481-3 0  9998", "line2": "2 31224  98.3697 342.9540 0158284 149.6216 228.2145 14.28902802693154"}}, "geometry": {"type": "Point", "coordinates": [135.20200349997296, -73.75630942412383]}}]}